H-2A R/B                
1 28932U 06002B   26162.38575122  .00005627  00000+0  27216-3 0  9992
2 28932  98.2553 317.6909 0049634 282.5768  76.9915 15.17987423108640
RESURS-DK 1             
1 29228U 06021A   26162.61485774  .00002239  00000+0  13189-3 0  9991
2 29228  69.9338 353.9772 0006676 296.0676  63.9802 15.13192789101736
CZ-4B R/B               
1 29507U 06046C   26162.58303409  .00003568  00000+0  17812-3 0  9991
2 29507  97.5460 207.2073 0031194 303.2653  56.5593 15.17743444 74281
CZ-2C R/B               
1 31114U 07010B   26162.28315157  .00000056  00000+0  44432-4 0  9998
2 31114  98.4093 270.9230 0059373  23.2361 337.1481 14.20274873993008
COSMO-SKYMED 1          
1 31598U 07023A   26162.58747566  .00002102  00000+0  18756-3 0  9997
2 31598  97.8849 354.3971 0000994  88.0018 272.1318 14.97073132 28957
COSMOS 2428             
1 31792U 07029A   26162.62160372 -.00000147  00000+0 -53044-4 0  9997
2 31792  70.9372   6.1639 0007224 145.7438 214.4150 14.12929203977366
SL-16 R/B               
1 31793U 07029B   26162.59531439  .00000288  00000+0  17407-3 0  9996
2 31793  70.9764 334.9835 0002223 259.4320 163.8953 14.14852189978650
KORONAS-FOTON           
1 33504U 09003A   26162.51092752  .00010583  00000+0  21864-3 0  9995
2 33504  82.4289 178.1802 0011070 166.2492 193.9060 15.45607253960221
CZ-2C R/B               
1 37731U 11030B   26162.65919245  .00001113  00000+0  14548-3 0  9994
2 37731  97.8653 118.1452 0053451  45.6750 130.5247 14.81457875804002
H-2A R/B                
1 38341U 12025E   26162.53745405  .00002970  00000+0  26807-3 0  9992
2 38341  98.4815 137.2171 0044032   7.6785 352.5099 14.95685625762249
SHIJIAN-16 (SJ-16)      
1 39358U 13057A   26162.60908875  .00001288  00000+0  12774-3 0  9996
2 39358  74.9737   7.2488 0016917 243.7733 116.1717 14.92599008685515
SL-4 R/B                
1 39679U 14021B   26162.42517519  .00010157  00000+0  21183-3 0  9994
2 39679  51.6055 238.9984 0091459  85.0382 276.1037 15.41833581670722
ALOS-2                  
1 39766U 14029A   26162.66091103  .00001266  00000+0  17641-3 0  9996
2 39766  97.9210 259.9038 0001640  89.2290 270.9110 14.79472533650767
YAOGAN-29               
1 41038U 15069A   26162.64542160  .00000915  00000+0  11905-3 0  9995
2 41038  98.0035 191.2697 0002837  64.3459 295.8047 14.83082519569803
ASTRO-H (HITOMI)        
1 41337U 16012A   26162.15306176  .00002143  00000+0  12121-3 0  9993
2 41337  30.9976 113.1571 0009691 193.5931 166.4447 15.10484459566379
HXMT (HUIYAN)           
1 42758U 17034A   26162.54311590  .00003875  00000+0  19424-3 0  9991
2 42758  43.0133 214.4686 0030215 110.0181 250.3925 15.18441281496804
SAOCOM 1A               
1 43641U 18076A   26162.60014291  .00000455  00000+0  63746-4 0  9993
2 43641  97.8888 349.4303 0001559  80.2921 279.8469 14.82143013415277
H-2A R/B                
1 43682U 18084L   26162.62337427  .00019502  00000+0  41197-3 0  9996
2 43682  98.8594  40.2987 0024018  58.8983 301.4613 15.44941664420260
SAOCOM 1B               
1 46265U 20059A   26162.63140640  .00000403  00000+0  57138-4 0  9994
2 46265  97.8891 348.5559 0001501  82.0036 278.1348 14.82167461312663
CSS (TIANHE)            
1 48274U 21035A   26162.53781054  .00016554  00000+0  19807-3 0  9994
2 48274  41.4693 356.3769 0008209  31.5834 328.5496 15.60566891292283
COSMOS 2550             
1 48865U 21056A   26159.80793882  .00006310  00000+0  19790-3 0  9991
2 48865  67.1416 125.2525 0008705 266.0377  93.9783 15.33755463277435
CZ-2C R/B               
1 52794U 22058K   26162.54741187  .00032812  00000+0  37052-3 0  9993
2 52794  50.1845 192.8563 0032808 244.4691 115.2888 15.61464510224764
CZ-2C R/B               
1 54039U 22132E   26162.54787055  .00060778  00000+0  48303-3 0  9997
2 54039  97.2899 169.3229 0016740 101.4335 258.8810 15.70871804205060
GSLV R/B                
1 54149U 22138AN  26162.43681763  .00001698  00000+0  14359-3 0  9992
2 54149  87.3795 134.9153 0022006 163.4033 196.7925 14.97229898197959
XRISM                   
1 57800U 23137A   26162.05302960  .00004483  00000+0  24618-3 0  9990
2 57800  31.0028  39.3338 0007943 262.6424  97.3312 15.12412932151938
ACS3                    
1 59588U 24077B   26162.53459777  .00007151  00000+0  53553-2 0  9995
2 59588  97.1682  82.5854 0060015  68.1976 292.5561 13.93897959107259
CZ-8A R/B               
1 66004U 25231K   26162.46212902 -.00000037  00000+0  45223-4 0  9992
2 66004  50.0047  63.6729 0116472 203.8571 155.6919 14.30153303 34123
SZ-21 MODULE            
1 66515U 25246C   26162.19643143  .00041640  00000+0  26187-3 0  9991
2 66515  41.4739 344.6241 0007105 312.3917  47.6325 15.75880017 32796
